{"type": "FeatureCollection", "features": [ {"type": "Feature", "properties": {"norad_id": 34833, "name": "IRIDIUM 33 DEB", "group": "iridium-33-debris", "lat": -60.08789066160528, "lon": -118.28052171617651, "alt_km": 730.6797166704055, "timestamp": "2025-12-02T10:50:47.660238+00:00", "meta": {"OBJECT_NAME": "IRIDIUM 33 DEB", "OBJECT_ID": "1997-051MH", "EPOCH": "2025-12-02T05:03:01.051776", "MEAN_MOTION": 14.52266696, "ECCENTRICITY": 0.0021485, "INCLINATION": 86.3939, "RA_OF_ASC_NODE": 55.5303, "ARG_OF_PERICENTER": 130.9995, "MEAN_ANOMALY": 287.1391, "EPHEMERIS_TYPE": 0, "CLASSIFICATION_TYPE": "U", "NORAD_CAT_ID": 34833, "ELEMENT_SET_NO": 999, "REV_AT_EPOCH": 87562, "BSTAR": 0.0010041, "MEAN_MOTION_DOT": 4.11e-05, "MEAN_MOTION_DDOT": 0}, "tle": {"line1": "1 34833U 97051MH  25336.21042884  .00004110  00000+0  10041-2 0  9994", "line2": "2 34833  86.3939  55.5303 0021485 130.9995 287.1391 14.52266696875624"}}, "geometry": {"type": "Point", "coordinates": [-118.28052171617651, -60.08789066160528]}}, {"type": "Feature", "properties": {"norad_id": 34870, "name": "IRIDIUM 33 DEB", "group": "iridium-33-debris", "lat": 46.60331962950197, "lon": -37.290549521816814, "alt_km": 648.0630918947481, "timestamp": "2025-12-02T10:50:47.660248+00:00", "meta": {"OBJECT_NAME": "IRIDIUM 33 DEB", "OBJECT_ID": "1997-051MQ", "EPOCH": "2025-12-01T05:36:37.151712", "MEAN_MOTION": 14.76055324, "ECCENTRICITY": 0.0014764, "INCLINATION": 86.3102, "RA_OF_ASC_NODE": 319.3536, "ARG_OF_PERICENTER": 227.1347, "MEAN_ANOMALY": 190.7112, "EPHEMERIS_TYPE": 0, "CLASSIFICATION_TYPE": "U", "NORAD_CAT_ID": 34870, "ELEMENT_SET_NO": 999, "REV_AT_EPOCH": 88741, "BSTAR": 0.0019021, "MEAN_MOTION_DOT": 0.00013168, "MEAN_MOTION_DDOT": 0}, "tle": {"line1": "1 34870U 97051MQ  25335.23376333  .00013168  00000+0  19021-2 0  9995", "line2": "2 34870  86.3102 319.3536 0014764 227.1347 190.7112 14.76055324887418"}}, "geometry": {"type": "Point", "coordinates": [-37.290549521816814, 46.60331962950197]}}, {"type": "Feature", "properties": {"norad_id": 34896, "name": "IRIDIUM 33 DEB", "group": "iridium-33-debris", "lat": -79.67862124616214, "lon": 171.94050061263573, "alt_km": 664.362876013437, "timestamp": "2025-12-02T10:50:47.660258+00:00", "meta": {"OBJECT_NAME": "IRIDIUM 33 DEB", "OBJECT_ID": "1997-051MY", "EPOCH": "2025-11-28T17:59:37.974912", "MEAN_MOTION": 14.66055051, "ECCENTRICITY": 0.00237461, "INCLINATION": 86.3294, "RA_OF_ASC_NODE": 332.9598, "ARG_OF_PERICENTER": 266.6712, "MEAN_ANOMALY": 266.6276, "EPHEMERIS_TYPE": 0, "CLASSIFICATION_TYPE": "U", "NORAD_CAT_ID": 34896, "ELEMENT_SET_NO": 999, "REV_AT_EPOCH": 87414, "BSTAR": 0.00096599733, "MEAN_MOTION_DOT": 5.342e-05, "MEAN_MOTION_DDOT": 0}, "tle": {"line1": "1 34896U 97051MY  25332.74974508  .00005342  00000+0  96600-3 0  9998", "line2": "2 34896  86.3294 332.9598 0023746 266.6712 266.6276 14.66055051874147"}}, "geometry": {"type": "Point", "coordinates": [171.94050061263573, -79.67862124616214]}}, {"type": "Feature", "properties": {"norad_id": 34926, "name": "IRIDIUM 33 DEB", "group": "iridium-33-debris", "lat": 76.30703492650214, "lon": 29.155973177099135, "alt_km": 724.0112602402205, "timestamp": "2025-12-02T10:50:47.660268+00:00", "meta": {"OBJECT_NAME": "IRIDIUM 33 DEB", "OBJECT_ID": "1997-051NF", "EPOCH": "2025-12-02T02:22:03.194112", "MEAN_MOTION": 14.5364627, "ECCENTRICITY": 0.0077001, "INCLINATION": 86.1337, "RA_OF_ASC_NODE": 13.2046, "ARG_OF_PERICENTER": 329.0462, "MEAN_ANOMALY": 59.3492, "EPHEMERIS_TYPE": 0, "CLASSIFICATION_TYPE": "U", "NORAD_CAT_ID": 34926, "ELEMENT_SET_NO": 999, "REV_AT_EPOCH": 86302, "BSTAR": 0.0054378, "MEAN_MOTION_DOT": 0.00023732, "MEAN_MOTION_DDOT": 0}, "tle": {"line1": "1 34926U 97051NF  25336.09864808  .00023732  00000+0  54378-2 0  9993", "line2": "2 34926  86.1337  13.2046 0077001 329.0462  59.3492 14.53646270863020"}}, "geometry": {"type": "Point", "coordinates": [29.155973177099135, 76.30703492650214]}}, {"type": "Feature", "properties": {"norad_id": 34985, "name": "IRIDIUM 33 DEB", "group": "iridium-33-debris", "lat": -71.96974103638722, "lon": 50.01977717814332, "alt_km": 747.4836051489938, "timestamp": "2025-12-02T10:50:47.660279+00:00", "meta": {"OBJECT_NAME": "IRIDIUM 33 DEB", "OBJECT_ID": "1997-051NR", "EPOCH": "2025-12-01T05:20:19.248000", "MEAN_MOTION": 14.4192555, "ECCENTRICITY": 0.0019807, "INCLINATION": 86.3697, "RA_OF_ASC_NODE": 61.7912, "ARG_OF_PERICENTER": 260.0842, "MEAN_ANOMALY": 129.3276, "EPHEMERIS_TYPE": 0, "CLASSIFICATION_TYPE": "U", "NORAD_CAT_ID": 34985, "ELEMENT_SET_NO": 999, "REV_AT_EPOCH": 87009, "BSTAR": 0.00086459, "MEAN_MOTION_DOT": 2.856e-05, "MEAN_MOTION_DDOT": 0}, "tle": {"line1": "1 34985U 97051NR  25335.22244500  .00002856  00000+0  86459-3 0  9993", "line2": "2 34985  86.3697  61.7912 0019807 260.0842 129.3276 14.41925550870093"}}, "geometry": {"type": "Point", "coordinates": [50.01977717814332, -71.96974103638722]}}, {"type": "Feature", "properties": {"norad_id": 35051, "name": "IRIDIUM 33 DEB", "group": "iridium-33-debris", "lat": 13.420078366118272, "lon": 14.224508654488544, "alt_km": 736.7929383418259, "timestamp": "2025-12-02T10:50:47.660290+00:00", "meta": {"OBJECT_NAME": "IRIDIUM 33 DEB", "OBJECT_ID": "1997-051NX", "EPOCH": "2025-12-01T09:53:54.581856", "MEAN_MOTION": 14.47515304, "ECCENTRICITY": 0.00104451, "INCLINATION": 86.3252, "RA_OF_ASC_NODE": 13.7986, "ARG_OF_PERICENTER": 121.6547, "MEAN_ANOMALY": 238.5677, "EPHEMERIS_TYPE": 0, "CLASSIFICATION_TYPE": "U", "NORAD_CAT_ID": 35051, "ELEMENT_SET_NO": 999, "REV_AT_EPOCH": 86832, "BSTAR": 0.00073041402, "MEAN_MOTION_DOT": 2.705e-05, "MEAN_MOTION_DDOT": 0}, "tle": {"line1": "1 35051U 97051NX  25335.41243729  .00002705  00000+0  73041-3 0  9997", "line2": "2 35051  86.3252  13.7986 0010445 121.6547 238.5677 14.47515304868325"}}, "geometry": {"type": "Point", "coordinates": [14.224508654488544, 13.420078366118272]}}, {"type": "Feature", "properties": {"norad_id": 35052, "name": "IRIDIUM 33 DEB", "group": "iridium-33-debris", "lat": 41.18165123247521, "lon": -158.33073939008557, "alt_km": 751.6093160813089, "timestamp": "2025-12-02T10:50:47.660300+00:00", "meta": {"OBJECT_NAME": "IRIDIUM 33 DEB", "OBJECT_ID": "1997-051NY", "EPOCH": "2025-12-01T20:50:57.172128", "MEAN_MOTION": 14.38471357, "ECCENTRICITY": 0.0013511, "INCLINATION": 86.332, "RA_OF_ASC_NODE": 25.1363, "ARG_OF_PERICENTER": 115.3752, "MEAN_ANOMALY": 244.8847, "EPHEMERIS_TYPE": 0, "CLASSIFICATION_TYPE": "U", "NORAD_CAT_ID": 35052, "ELEMENT_SET_NO": 999, "REV_AT_EPOCH": 87119, "BSTAR": 0.00022806, "MEAN_MOTION_DOT": 7.16e-06, "MEAN_MOTION_DDOT": 0}, "tle": {"line1": "1 35052U 97051NY  25335.86871727  .00000716  00000+0  22806-3 0  9995", "line2": "2 35052  86.3320  25.1363 0013511 115.3752 244.8847 14.38471357871190"}}, "geometry": {"type": "Point", "coordinates": [-158.33073939008557, 41.18165123247521]}}, {"type": "Feature", "properties": {"norad_id": 35080, "name": "IRIDIUM 33 DEB", "group": "iridium-33-debris", "lat": 32.011068782953174, "lon": 59.66221141319267, "alt_km": 660.2569170706311, "timestamp": "2025-12-02T10:50:47.660310+00:00", "meta": {"OBJECT_NAME": "IRIDIUM 33 DEB", "OBJECT_ID": "1997-051PF", "EPOCH": "2025-12-01T23:22:16.261248", "MEAN_MOTION": 14.83809313, "ECCENTRICITY": 0.0064247, "INCLINATION": 86.2057, "RA_OF_ASC_NODE": 57.5123, "ARG_OF_PERICENTER": 215.9752, "MEAN_ANOMALY": 143.7139, "EPHEMERIS_TYPE": 0, "CLASSIFICATION_TYPE": "U", "NORAD_CAT_ID": 35080, "ELEMENT_SET_NO": 999, "REV_AT_EPOCH": 69528, "BSTAR": 0.0089496, "MEAN_MOTION_DOT": 0.00077648, "MEAN_MOTION_DDOT": 0}, "tle": {"line1": "1 35080U 97051PF  25335.97379932  .00077648  00000+0  89496-2 0  9994", "line2": "2 35080  86.2057  57.5123 0064247 215.9752 143.7139 14.83809313695281"}}, "geometry": {"type": "Point", "coordinates": [59.66221141319267, 32.011068782953174]}}, {"type": "Feature", "properties": {"norad_id": 35297, "name": "IRIDIUM 33 DEB", "group": "iridium-33-debris", "lat": 19.826697698011667, "lon": -114.15630072077467, "alt_km": 730.6584407652554, "timestamp": "2025-12-02T10:50:47.660320+00:00", "meta": {"OBJECT_NAME": "IRIDIUM 33 DEB", "OBJECT_ID": "1997-051PM", "EPOCH": "2025-11-28T13:02:32.385696", "MEAN_MOTION": 14.4505178, "ECCENTRICITY": 0.00162447, "INCLINATION": 86.3859, "RA_OF_ASC_NODE": 68.817, "ARG_OF_PERICENTER": 185.2069, "MEAN_ANOMALY": 174.8967, "EPHEMERIS_TYPE": 0, "CLASSIFICATION_TYPE": "U", "NORAD_CAT_ID": 35297, "ELEMENT_SET_NO": 999, "REV_AT_EPOCH": 70221, "BSTAR": 0.00072341306, "MEAN_MOTION_DOT": 2.549e-05, "MEAN_MOTION_DDOT": 0}, "tle": {"line1": "1 35297U 97051PM  25332.54343039  .00002549  00000+0  72341-3 0  9993", "line2": "2 35297  86.3859  68.8170 0016244 185.2069 174.8967 14.45051780702214"}}, "geometry": {"type": "Point", "coordinates": [-114.15630072077467, 19.826697698011667]}}, {"type": "Feature", "properties": {"norad_id": 35299, "name": "IRIDIUM 33 DEB", "group": "iridium-33-debris", "lat": -72.12977632973632, "lon": -130.72468100752735, "alt_km": 782.3495220668983, "timestamp": "2025-12-02T10:50:47.660331+00:00", "meta": {"OBJECT_NAME": "IRIDIUM 33 DEB", "OBJECT_ID": "1997-051PP", "EPOCH": "2025-12-01T22:35:01.204224", "MEAN_MOTION": 14.40770898, "ECCENTRICITY": 0.005859, "INCLINATION": 86.2895, "RA_OF_ASC_NODE": 37.8863, "ARG_OF_PERICENTER": 136.7953, "MEAN_ANOMALY": 346.55, "EPHEMERIS_TYPE": 0, "CLASSIFICATION_TYPE": "U", "NORAD_CAT_ID": 35299, "ELEMENT_SET_NO": 999, "REV_AT_EPOCH": 86175, "BSTAR": 0.00094919, "MEAN_MOTION_DOT": 3.118e-05, "MEAN_MOTION_DDOT": 0}, "tle": {"line1": "1 35299U 97051PP  25335.94098616  .00003118  00000+0  94919-3 0  9998", "line2": "2 35299  86.2895  37.8863 0058590 136.7953 346.5500 14.40770898861752"}}, "geometry": {"type": "Point", "coordinates": [-130.72468100752735, -72.12977632973632]}}]}